[{"OBJECT_NAME":"LEMUR-2-FURIAUS","OBJECT_ID":"2017-042R","EPOCH":"2026-03-09T23:04:27.745536","MEAN_MOTION":15.26272951,"ECCENTRICITY":0.00075374,"INCLINATION":97.3753,"RA_OF_ASC_NODE":248.499,"ARG_OF_PERICENTER":55.8686,"MEAN_ANOMALY":304.3266,"EPHEMERIS_TYPE":0,"CLASSIFICATION_TYPE":"U","NORAD_CAT_ID":42840,"ELEMENT_SET_NO":999,"REV_AT_EPOCH":47305,"BSTAR":0.00099966194,"MEAN_MOTION_DOT":0.00025928,"MEAN_MOTION_DDOT":0},{"OBJECT_NAME":"STARLINK-32688","OBJECT_ID":"2024-229B","EPOCH":"2026-03-09T21:43:43.904064","MEAN_MOTION":15.27587362,"ECCENTRICITY":0.00021729,"INCLINATION":43.0005,"RA_OF_ASC_NODE":269.5579,"ARG_OF_PERICENTER":250.8853,"MEAN_ANOMALY":109.1764,"EPHEMERIS_TYPE":0,"CLASSIFICATION_TYPE":"U","NORAD_CAT_ID":62193,"ELEMENT_SET_NO":999,"REV_AT_EPOCH":7059,"BSTAR":0.0011159597,"MEAN_MOTION_DOT":0.00030582,"MEAN_MOTION_DDOT":0}]
